{
    "links": {
        "self": "http://www.neowsapp.com/rest/v1/neo/3709773?api_key=iIulBulltgU6a56xZRHN4H3l9WmuAYTsLGpBGhQ2"
    },
    "id": "3709773",
    "neo_reference_id": "3709773",
    "name": "(2015 CO)",
    "designation": "2015 CO",
    "nasa_jpl_url": "http://ssd.jpl.nasa.gov/sbdb.cgi?sstr=3709773",
    "absolute_magnitude_h": 26.2,
    "estimated_diameter": {
        "kilometers": {
            "estimated_diameter_min": 0.0152951935,
            "estimated_diameter_max": 0.0342010925
        },
        "meters": {
            "estimated_diameter_min": 15.2951935344,
            "estimated_diameter_max": 34.201092472
        },
        "miles": {
            "estimated_diameter_min": 0.0095039897,
            "estimated_diameter_max": 0.021251567
        },
        "feet": {
            "estimated_diameter_min": 50.1810827555,
            "estimated_diameter_max": 112.2083122258
        }
    },
    "is_potentially_hazardous_asteroid": false,
    "close_approach_data": [
        {
            "close_approach_date": "1957-04-04",
            "close_approach_date_full": "1957-Apr-04 22:15",
            "epoch_date_close_approach": -402111900000,
            "relative_velocity": {
                "kilometers_per_second": "17.0026670115",
                "kilometers_per_hour": "61209.601241225",
                "miles_per_hour": "38033.2658379156"
            },
            "miss_distance": {
                "astronomical": "0.4487794609",
                "lunar": "174.5752102901",
                "kilometers": "67136451.450388283",
                "miles": "41716656.5042049854"
            },
            "orbiting_body": "Earth"
        },
        {
            "close_approach_date": "2013-01-02",
            "close_approach_date_full": "2013-Jan-02 22:38",
            "epoch_date_close_approach": 1357166280000,
            "relative_velocity": {
                "kilometers_per_second": "16.4656420541",
                "kilometers_per_hour": "59276.3113948946",
                "miles_per_hour": "36831.9947109"
            },
            "miss_distance": {
                "astronomical": "0.4326401368",
                "lunar": "168.2970132152",
                "kilometers": "64722042.941788616",
                "miles": "40216412.6241942608"
            },
            "orbiting_body": "Earth"
        },
        {
            "close_approach_date": "2015-02-13",
            "close_approach_date_full": "2015-Feb-13 16:07",
            "epoch_date_close_approach": 1423843620000,
            "relative_velocity": {
                "kilometers_per_second": "4.0142877823",
                "kilometers_per_hour": "14451.4360161283",
                "miles_per_hour": "8979.5603401326"
            },
            "miss_distance": {
                "astronomical": "0.0521086354",
                "lunar": "20.2702591706",
                "kilometers": "7795340.864446598",
                "miles": "4843800.2031671324"
            },
            "orbiting_body": "Earth"
        },
        {
            "close_approach_date": "2017-04-02",
            "close_approach_date_full": "2017-Apr-02 08:40",
            "epoch_date_close_approach": 1491122400000,
            "relative_velocity": {
                "kilometers_per_second": "15.2634215799",
                "kilometers_per_hour": "54948.3176876368",
                "miles_per_hour": "34142.7477320763"
            },
            "miss_distance": {
                "astronomical": "0.3905310235",
                "lunar": "151.9165681415",
                "kilometers": "58422609.284519945",
                "miles": "36302126.057447441"
            },
            "orbiting_body": "Earth"
        }
    ],
    "orbital_data": {
        "orbit_id": "10",
        "orbit_determination_date": "2017-04-06 08:35:48",
        "first_observation_date": "2015-02-08",
        "last_observation_date": "2015-02-24",
        "data_arc_in_days": 16,
        "observations_used": 34,
        "orbit_uncertainty": "8",
        "minimum_orbit_intersection": ".0508792",
        "jupiter_tisserand_invariant": "4.248",
        "epoch_osculation": "2457063.5",
        "eccentricity": ".3601109412294708",
        "semi_major_axis": "1.622679640123498",
        "inclination": ".8073199193731214",
        "ascending_node_longitude": "301.4336019659342",
        "orbital_period": "755.0011401628612",
        "perihelion_distance": "1.038334947604726",
        "perihelion_argument": "204.2448601466381",
        "aphelion_distance": "2.207024332642269",
        "perihelion_time": "2457067.856913197095",
        "mean_anomaly": "357.9225345929731",
        "mean_motion": ".4768204719827899",
        "equinox": "J2000",
        "orbit_class": {
            "orbit_class_type": "AMO",
            "orbit_class_description": "Near-Earth asteroid orbits similar to that of 1221 Amor",
            "orbit_class_range": "1.017 AU < q (perihelion) < 1.3 AU"
        }
    },
    "is_sentry_object": false
}